{
  "links" : {
    "next" : "https://api.nasa.gov/neo/rest/v1/feed?start_date=2012-06-09&end_date=2012-06-09&detailed=true&api_key=t0TVs3DtDT2H8Oy2Zy8m2eVrNsAVKAexjcZXUckd",
    "prev" : "https://api.nasa.gov/neo/rest/v1/feed?start_date=2012-06-07&end_date=2012-06-07&detailed=true&api_key=t0TVs3DtDT2H8Oy2Zy8m2eVrNsAVKAexjcZXUckd",
    "self" : "https://api.nasa.gov/neo/rest/v1/feed?start_date=2012-06-08&end_date=2012-06-08&detailed=true&api_key=t0TVs3DtDT2H8Oy2Zy8m2eVrNsAVKAexjcZXUckd"
  },
  "element_count" : 7,
  "near_earth_objects" : {
    "2012-06-08" : [ {
      "links" : {
        "self" : "https://api.nasa.gov/neo/rest/v1/neo/3605578?api_key=t0TVs3DtDT2H8Oy2Zy8m2eVrNsAVKAexjcZXUckd"
      },
      "neo_reference_id" : "3605578",
      "name" : "(2012 LJ2)",
      "nasa_jpl_url" : "http://ssd.jpl.nasa.gov/sbdb.cgi?sstr=3605578",
      "absolute_magnitude_h" : 21.6,
      "estimated_diameter" : {
        "kilometers" : {
          "estimated_diameter_min" : 0.1272198785,
          "estimated_diameter_max" : 0.2844722965
        },
        "meters" : {
          "estimated_diameter_min" : 127.2198785394,
          "estimated_diameter_max" : 284.4722965033
        },
        "miles" : {
          "estimated_diameter_min" : 0.0790507431,
          "estimated_diameter_max" : 0.1767628354
        },
        "feet" : {
          "estimated_diameter_min" : 417.3880663071,
          "estimated_diameter_max" : 933.3080892598
        }
      },
      "is_potentially_hazardous_asteroid" : false,
      "close_approach_data" : [ {
        "close_approach_date" : "2012-06-08",
        "epoch_date_close_approach" : 1339138800000,
        "relative_velocity" : {
          "kilometers_per_second" : "21.5996797924",
          "kilometers_per_hour" : "77758.8472527008",
          "miles_per_hour" : "48316.3237276574"
        },
        "miss_distance" : {
          "astronomical" : "0.1532541653",
          "lunar" : "59.6158714294",
          "kilometers" : "22926498",
          "miles" : "14245865"
        },
        "orbiting_body" : "Earth"
      } ],
      "orbital_data" : {
        "orbit_id" : "11",
        "orbit_determination_date" : "2017-04-06 08:49:37",
        "orbit_uncertainty" : "8",
        "minimum_orbit_intersection" : ".152377",
        "jupiter_tisserand_invariant" : "3.726",
        "epoch_osculation" : "2456091.5",
        "eccentricity" : ".5346543450215154",
        "semi_major_axis" : "1.789662537790556",
        "inclination" : "34.33028770911115",
        "ascending_node_longitude" : "86.74455986059485",
        "orbital_period" : "874.4906045448871",
        "perihelion_distance" : ".8328116858386033",
        "perihelion_argument" : "94.64747714952878",
        "aphelion_distance" : "2.74651338974251",
        "perihelion_time" : "2456028.217638963895",
        "mean_anomaly" : "26.05133760682781",
        "mean_motion" : ".4116682307723083",
        "equinox" : "J2000"
      }
    }, {
      "links" : {
        "self" : "https://api.nasa.gov/neo/rest/v1/neo/3141525?api_key=t0TVs3DtDT2H8Oy2Zy8m2eVrNsAVKAexjcZXUckd"
      },
      "neo_reference_id" : "3141525",
      "name" : "(2002 UQ12)",
      "nasa_jpl_url" : "http://ssd.jpl.nasa.gov/sbdb.cgi?sstr=3141525",
      "absolute_magnitude_h" : 22.4,
      "estimated_diameter" : {
        "kilometers" : {
          "estimated_diameter_min" : 0.0880146521,
          "estimated_diameter_max" : 0.1968067451
        },
        "meters" : {
          "estimated_diameter_min" : 88.0146520901,
          "estimated_diameter_max" : 196.8067450894
        },
        "miles" : {
          "estimated_diameter_min" : 0.0546897524,
          "estimated_diameter_max" : 0.122290004
        },
        "feet" : {
          "estimated_diameter_min" : 288.7619911632,
          "estimated_diameter_max" : 645.6914415591
        }
      },
      "is_potentially_hazardous_asteroid" : false,
      "close_approach_data" : [ {
        "close_approach_date" : "2012-06-08",
        "epoch_date_close_approach" : 1339138800000,
        "relative_velocity" : {
          "kilometers_per_second" : "33.0704263625",
          "kilometers_per_hour" : "119053.5349049215",
          "miles_per_hour" : "73975.2367302275"
        },
        "miss_distance" : {
          "astronomical" : "0.3967928111",
          "lunar" : "154.3524017334",
          "kilometers" : "59359360",
          "miles" : "36884196"
        },
        "orbiting_body" : "Earth"
      } ],
      "orbital_data" : {
        "orbit_id" : "22",
        "orbit_determination_date" : "2017-04-06 09:14:41",
        "orbit_uncertainty" : "0",
        "minimum_orbit_intersection" : ".0265204",
        "jupiter_tisserand_invariant" : "3.788",
        "epoch_osculation" : "2458000.5",
        "eccentricity" : ".6981120519799623",
        "semi_major_axis" : "1.760333124792345",
        "inclination" : "2.853320402327223",
        "ascending_node_longitude" : "190.343849456858",
        "orbital_period" : "853.0818829169374",
        "perihelion_distance" : ".5314233548752619",
        "perihelion_argument" : "309.9001337406511",
        "aphelion_distance" : "2.989242894709427",
        "perihelion_time" : "2457747.535922125226",
        "mean_anomaly" : "106.7506764104913",
        "mean_motion" : ".4219993498971685",
        "equinox" : "J2000"
      }
    }, {
      "links" : {
        "self" : "https://api.nasa.gov/neo/rest/v1/neo/3464767?api_key=t0TVs3DtDT2H8Oy2Zy8m2eVrNsAVKAexjcZXUckd"
      },
      "neo_reference_id" : "3464767",
      "name" : "(2009 OC3)",
      "nasa_jpl_url" : "http://ssd.jpl.nasa.gov/sbdb.cgi?sstr=3464767",
      "absolute_magnitude_h" : 22.3,
      "estimated_diameter" : {
        "kilometers" : {
          "estimated_diameter_min" : 0.0921626549,
          "estimated_diameter_max" : 0.2060819612
        },
        "meters" : {
          "estimated_diameter_min" : 92.1626548503,
          "estimated_diameter_max" : 206.0819612321
        },
        "miles" : {
          "estimated_diameter_min" : 0.057267201,
          "estimated_diameter_max" : 0.1280533543
        },
        "feet" : {
          "estimated_diameter_min" : 302.370924539,
          "estimated_diameter_max" : 676.1219416887
        }
      },
      "is_potentially_hazardous_asteroid" : false,
      "close_approach_data" : [ {
        "close_approach_date" : "2012-06-08",
        "epoch_date_close_approach" : 1339138800000,
        "relative_velocity" : {
          "kilometers_per_second" : "16.7262101971",
          "kilometers_per_hour" : "60214.3567097213",
          "miles_per_hour" : "37414.8595899932"
        },
        "miss_distance" : {
          "astronomical" : "0.4209608428",
          "lunar" : "163.7537689209",
          "kilometers" : "62974848",
          "miles" : "39130756"
        },
        "orbiting_body" : "Earth"
      } ],
      "orbital_data" : {
        "orbit_id" : "24",
        "orbit_determination_date" : "2017-04-06 09:00:21",
        "orbit_uncertainty" : "5",
        "minimum_orbit_intersection" : ".0716727",
        "jupiter_tisserand_invariant" : "3.643",
        "epoch_osculation" : "2458000.5",
        "eccentricity" : ".4718010233347225",
        "semi_major_axis" : "2.051419386446243",
        "inclination" : "1.559611460936297",
        "ascending_node_longitude" : "175.3433015076592",
        "orbital_period" : "1073.198630901023",
        "perihelion_distance" : "1.083557620632217",
        "perihelion_argument" : "126.2318627781959",
        "aphelion_distance" : "3.019281152260269",
        "perihelion_time" : "2458255.301852941898",
        "mean_anomaly" : "274.5277822595891",
        "mean_motion" : ".3354458248775024",
        "equinox" : "J2000"
      }
    } ]
  }
}